{
    "links": {
        "self": "http://www.neowsapp.com/rest/v1/neo/3843372?api_key=iIulBulltgU6a56xZRHN4H3l9WmuAYTsLGpBGhQ2"
    },
    "id": "3843372",
    "neo_reference_id": "3843372",
    "name": "(2019 OT1)",
    "designation": "2019 OT1",
    "nasa_jpl_url": "http://ssd.jpl.nasa.gov/sbdb.cgi?sstr=3843372",
    "absolute_magnitude_h": 23.7,
    "estimated_diameter": {
        "kilometers": {
            "estimated_diameter_min": 0.0483676488,
            "estimated_diameter_max": 0.1081533507
        },
        "meters": {
            "estimated_diameter_min": 48.3676488219,
            "estimated_diameter_max": 108.1533506775
        },
        "miles": {
            "estimated_diameter_min": 0.0300542543,
            "estimated_diameter_max": 0.0672033557
        },
        "feet": {
            "estimated_diameter_min": 158.6865169607,
            "estimated_diameter_max": 354.8338390368
        }
    },
    "is_potentially_hazardous_asteroid": false,
    "close_approach_data": [
        {
            "close_approach_date": "2019-07-28",
            "close_approach_date_full": "2019-Jul-28 20:47",
            "epoch_date_close_approach": 1564346820000,
            "relative_velocity": {
                "kilometers_per_second": "7.8648315864",
                "kilometers_per_hour": "28313.3937109476",
                "miles_per_hour": "17592.8417755607"
            },
            "miss_distance": {
                "astronomical": "0.232567314",
                "lunar": "90.468685146",
                "kilometers": "34791574.80602118",
                "miles": "21618482.122125084"
            },
            "orbiting_body": "Earth"
        }
    ],
    "orbital_data": {
        "orbit_id": "3",
        "orbit_determination_date": "2019-08-14 05:33:42",
        "first_observation_date": "2019-07-26",
        "last_observation_date": "2019-08-08",
        "data_arc_in_days": 13,
        "observations_used": 16,
        "orbit_uncertainty": "8",
        "minimum_orbit_intersection": ".232373",
        "jupiter_tisserand_invariant": "4.512",
        "epoch_osculation": "2458691.5",
        "eccentricity": ".1621583103707902",
        "semi_major_axis": "1.488784824709197",
        "inclination": "15.5169919004639",
        "ascending_node_longitude": "303.6830797438777",
        "orbital_period": "663.5082495174715",
        "perihelion_distance": "1.247365993028681",
        "perihelion_argument": "5.308684475831627",
        "aphelion_distance": "1.730203656389714",
        "perihelion_time": "2458697.648837883944",
        "mean_anomaly": "356.6638219798629",
        "mean_motion": ".5425704959385292",
        "equinox": "J2000",
        "orbit_class": {
            "orbit_class_type": "AMO",
            "orbit_class_description": "Near-Earth asteroid orbits similar to that of 1221 Amor",
            "orbit_class_range": "1.017 AU < q (perihelion) < 1.3 AU"
        }
    },
    "is_sentry_object": false
}